OBJECT_NAME,OBJECT_ID,EPOCH,MEAN_MOTION,ECCENTRICITY,INCLINATION,RA_OF_ASC_NODE,ARG_OF_PERICENTER,MEAN_ANOMALY,EPHEMERIS_TYPE,CLASSIFICATION_TYPE,NORAD_CAT_ID,ELEMENT_SET_NO,REV_AT_EPOCH,BSTAR,MEAN_MOTION_DOT,MEAN_MOTION_DDOT
BEIDOU-3S IGSO-1S (C31),2015-019A,2026-07-01T18:51:56.955168,1.00248803,.00392789,49.1677,295.2866,192.1614,165.4543,0,U,40549,999,4121,0,-.144E-5,0
GPS BIIF-10 (PRN 08),2015-033A,2026-07-01T16:19:44.608224,2.00555660,.01151824,53.9713,266.4887,30.2513,330.4805,0,U,40730,999,8028,0,-.5E-7,0
BEIDOU-3S M2S (C58),2015-037A,2026-07-01T06:49:02.503200,1.86232501,.00090206,54.8572,301.5610,257.9335,101.9782,0,U,40748,999,7438,0,-.66E-6,0
BEIDOU-3S M1S (C57),2015-037B,2026-07-01T11:45:13.356288,1.86255000,.00031011,54.8538,301.5415,62.8434,297.2018,0,U,40749,999,7439,0,-.65E-6,0
GSAT0206 (GALILEO 10),2015-045B,2026-07-01T12:50:49.477632,1.70473858,.00016203,54.9416,221.2080,340.3144,19.7690,0,U,40890,999,6728,0,.74E-6,0
BEIDOU-3S IGSO-2S (C56),2015-053A,2026-06-30T16:52:41.290752,1.00257046,.00656789,49.1997,258.6211,193.2539,174.4507,0,U,40938,999,3949,0,-.93E-6,0
GPS BIIF-11 (PRN 10),2015-062A,2026-06-29T17:47:48.867648,2.00567192,.01122445,56.9678,30.3277,230.9838,128.0695,0,U,41019,999,7808,0,-.66E-6,0
GSAT-15 (GAGAN/PRN 139),2015-065A,2026-07-02T02:26:58.021152,1.00270035,.00044455,0.0427,253.7187,187.1575,329.5056,0,U,41028,999,3894,0,-.247E-5,0
GSAT0209 (GALILEO 12),2015-079A,2026-06-28T04:24:50.829696,1.70473803,.00050857,55.8335,100.9603,347.1897,12.7761,0,U,41174,999,6496,0,-.33E-6,0
GSAT0208 (GALILEO 11),2015-079B,2026-07-01T22:10:17.474304,1.70473736,.00046137,55.8336,100.8547,354.4374,5.5610,0,U,41175,999,6544,0,-.13E-6,0
IRNSS-1E,2016-003A,2026-06-29T19:51:21.425184,1.00272765,.00192006,33.2608,59.5670,178.7998,89.1855,0,U,41241,999,3820,0,-.31E-5,0
GPS BIIF-12 (PRN 32),2016-007A,2026-06-29T20:00:04.300704,2.00551193,.00956433,55.5312,88.9584,247.1499,111.8568,0,U,41328,999,7609,0,-.37E-6,0
COSMOS 2514 (751),2016-008A,2026-07-01T19:58:25.215456,2.13102696,.00118405,65.0121,312.5042,199.6375,160.3188,0,U,41330,999,8093,0,-.51E-6,0
BEIDOU-2 IGSO-6 (C13),2016-021A,2026-06-26T02:38:38.671584,1.00258926,.0057558,60.2385,37.9495,231.0163,137.2672,0,U,41434,999,3757,0,-.145E-5,0
IRNSS-1G,2016-027A,2026-07-01T20:02:05.112960,1.00280117,.00058007,5.2308,97.1365,6.3049,246.4676,0,U,41469,999,3732,0,-.327E-5,0
GSAT0211 (GALILEO 14),2016-030A,2026-06-27T22:35:47.691744,1.70474008,.00031164,55.0927,221.3989,320.4926,39.5816,0,U,41549,999,6285,0,.69E-6,0
GSAT0210 (GALILEO 13),2016-030B,2026-07-02T07:18:59.007168,1.70473959,.00083141,55.0898,221.2769,256.8787,103.1145,0,U,41550,999,6292,0,.74E-6,0
BEIDOU-2 G7 (C03),2016-037A,2026-07-02T00:49:12.566208,1.00269814,.00067751,1.7553,69.4328,3.5111,329.9821,0,U,41586,999,703,0,-.344E-5,0
EUTELSAT 117 WEST B (WAAS/PRN 131),2016-038B,2026-07-02T00:22:28.202016,1.00272712,.00003557,0.0107,154.0076,118.1646,256.4974,0,U,41589,999,3681,0,-.1E-7,0
GSAT0207 (GALILEO 15),2016-069A,2026-06-26T17:13:02.065728,1.70473700,.00050068,55.5042,100.8225,333.0982,26.8500,0,U,41859,999,5956,0,-.38E-6,0
GSAT0212 (GALILEO 16),2016-069B,2026-06-28T07:56:01.576320,1.70473934,.00044344,55.5028,100.7730,6.1382,353.8467,0,U,41860,999,5984,0,-.33E-6,0
GSAT0213 (GALILEO 17),2016-069C,2026-06-28T02:40:06.685536,1.70474290,.00045371,55.5047,100.7870,315.9585,43.9839,0,U,41861,999,5970,0,-.34E-6,0
GSAT0214 (GALILEO 18),2016-069D,2026-07-01T04:34:09.619968,1.70473880,.00035565,55.5050,100.6945,328.0660,31.9108,0,U,41862,999,5988,0,-.17E-6,0
SES-15 (WAAS/PRN 133),2017-026A,2026-07-02T04:28:38.912736,1.00269051,.00006359,0.0232,330.7575,118.5035,128.9775,0,U,42709,999,758,0,.71E-6,0
QZS-2 (QZSS/PRN 194),2017-028A,2026-07-01T11:19:35.470848,1.00280245,.07587467,39.4058,242.9433,269.4314,79.2051,0,U,42738,999,776,0,-.11E-5,0
QZS-3 (QZSS/PRN 199),2017-048A,2026-07-02T06:01:50.638656,1.00269120,.00022396,0.0758,135.6899,323.5627,38.5270,0,U,42917,999,3241,0,-.338E-5,0
COSMOS 2522 (752),2017-055A,2026-07-01T16:04:43.607424,2.13102110,.00108799,64.0801,191.3912,240.6599,119.2646,0,U,42939,999,6828,0,.79E-6,0
QZS-4 (QZSS/PRN 195),2017-062A,2026-06-30T07:50:44.718144,1.00295775,.07467097,40.1009,343.3188,268.3129,282.6055,0,U,42965,999,3193,0,-.331E-5,0
BEIDOU-3 M1 (C19),2017-069A,2026-07-01T15:08:27.612096,1.86231668,.00097807,56.7042,62.6089,326.4451,33.5606,0,U,43001,999,5887,0,-.4E-6,0
BEIDOU-3 M2 (C20),2017-069B,2026-07-01T13:40:18.986016,1.86230991,.00087433,56.7036,62.6466,353.8401,6.2165,0,U,43002,999,5886,0,-.4E-6,0
GSAT0215 (GALILEO 19),2017-079A,2026-06-28T03:51:18.726624,1.70474711,.00031009,55.0711,221.2046,263.9664,96.0952,0,U,43055,999,5317,0,.69E-6,0
